{"type": "FeatureCollection", "features": [ {"type": "Feature", "properties": {"norad_id": 30649, "name": "FENGYUN 1C DEB", "group": "fengyun-1c-debris", "lat": 26.176499999724527, "lon": -80.22569404720727, "alt_km": 757.5446912011494, "timestamp": "2025-12-25T22:42:17.289017+00:00", "meta": {"OBJECT_NAME": "FENGYUN 1C DEB", "OBJECT_ID": "1999-025APG", "EPOCH": "2025-12-25T05:29:52.058400", "MEAN_MOTION": 14.2963623, "ECCENTRICITY": 0.0050854, "INCLINATION": 98.8086, "RA_OF_ASC_NODE": 94.6781, "ARG_OF_PERICENTER": 136.0066, "MEAN_ANOMALY": 289.3041, "EPHEMERIS_TYPE": 0, "CLASSIFICATION_TYPE": "U", "NORAD_CAT_ID": 30649, "ELEMENT_SET_NO": 999, "REV_AT_EPOCH": 97242, "BSTAR": 0.0017878, "MEAN_MOTION_DOT": 4.601e-05, "MEAN_MOTION_DDOT": 0}, "tle": {"line1": "1 30649U 99025APG 25359.22907475  .00004601  00000+0  17878-2 0  9990", "line2": "2 30649  98.8086  94.6781 0050854 136.0066 289.3041 14.29636230972429"}}, "geometry": {"type": "Point", "coordinates": [-80.22569404720727, 26.176499999724527]}}, {"type": "Feature", "properties": {"norad_id": 30650, "name": "FENGYUN 1C DEB", "group": "fengyun-1c-debris", "lat": 49.24319513634992, "lon": -128.23471603652806, "alt_km": 793.140164678478, "timestamp": "2025-12-25T22:42:17.289027+00:00", "meta": {"OBJECT_NAME": "FENGYUN 1C DEB", "OBJECT_ID": "1999-025APH", "EPOCH": "2025-12-24T22:53:24.080352", "MEAN_MOTION": 14.14000626, "ECCENTRICITY": 0.0072306, "INCLINATION": 99.2032, "RA_OF_ASC_NODE": 39.9015, "ARG_OF_PERICENTER": 155.9173, "MEAN_ANOMALY": 325.8816, "EPHEMERIS_TYPE": 0, "CLASSIFICATION_TYPE": "U", "NORAD_CAT_ID": 30650, "ELEMENT_SET_NO": 999, "REV_AT_EPOCH": 96471, "BSTAR": 0.0014383, "MEAN_MOTION_DOT": 2.756e-05, "MEAN_MOTION_DDOT": 0}, "tle": {"line1": "1 30650U 99025APH 25358.95375093  .00002756  00000+0  14383-2 0  9993", "line2": "2 30650  99.2032  39.9015 0072306 155.9173 325.8816 14.14000626964711"}}, "geometry": {"type": "Point", "coordinates": [-128.23471603652806, 49.24319513634992]}}, {"type": "Feature", "properties": {"norad_id": 30652, "name": "FENGYUN 1C DEB", "group": "fengyun-1c-debris", "lat": -76.3664726695509, "lon": 173.1149059000258, "alt_km": 869.6571402990776, "timestamp": "2025-12-25T22:42:17.289038+00:00", "meta": {"OBJECT_NAME": "FENGYUN 1C DEB", "OBJECT_ID": "1999-025APJ", "EPOCH": "2025-12-25T16:56:31.475040", "MEAN_MOTION": 14.07809237, "ECCENTRICITY": 0.0007667, "INCLINATION": 98.7839, "RA_OF_ASC_NODE": 32.4856, "ARG_OF_PERICENTER": 224.6762, "MEAN_ANOMALY": 258.5395, "EPHEMERIS_TYPE": 0, "CLASSIFICATION_TYPE": "U", "NORAD_CAT_ID": 30652, "ELEMENT_SET_NO": 999, "REV_AT_EPOCH": 96876, "BSTAR": 0.00013588, "MEAN_MOTION_DOT": 1.87e-06, "MEAN_MOTION_DDOT": 0}, "tle": {"line1": "1 30652U 99025APJ 25359.70591985  .00000187  00000+0  13588-3 0  9992", "line2": "2 30652  98.7839  32.4856 0007667 224.6762 258.5395 14.07809237968769"}}, "geometry": {"type": "Point", "coordinates": [173.1149059000258, -76.3664726695509]}}, {"type": "Feature", "properties": {"norad_id": 30654, "name": "FENGYUN 1C DEB", "group": "fengyun-1c-debris", "lat": -11.66563923148091, "lon": -74.372246697735, "alt_km": 831.1321165501377, "timestamp": "2025-12-25T22:42:17.289048+00:00", "meta": {"OBJECT_NAME": "FENGYUN 1C DEB", "OBJECT_ID": "1999-025APL", "EPOCH": "2025-12-25T17:40:36.744096", "MEAN_MOTION": 14.17152644, "ECCENTRICITY": 0.0035895, "INCLINATION": 99.2427, "RA_OF_ASC_NODE": 283.4835, "ARG_OF_PERICENTER": 60.7512, "MEAN_ANOMALY": 299.7243, "EPHEMERIS_TYPE": 0, "CLASSIFICATION_TYPE": "U", "NORAD_CAT_ID": 30654, "ELEMENT_SET_NO": 999, "REV_AT_EPOCH": 96864, "BSTAR": 0.0011194, "MEAN_MOTION_DOT": 2.223e-05, "MEAN_MOTION_DDOT": 0}, "tle": {"line1": "1 30654U 99025APL 25359.73653639  .00002223  00000+0  11194-2 0  9995", "line2": "2 30654  99.2427 283.4835 0035895  60.7512 299.7243 14.17152644968641"}}, "geometry": {"type": "Point", "coordinates": [-74.372246697735, -11.66563923148091]}}, {"type": "Feature", "properties": {"norad_id": 30656, "name": "FENGYUN 1C DEB", "group": "fengyun-1c-debris", "lat": 41.070299839629875, "lon": 166.9072467608406, "alt_km": 715.5948941158658, "timestamp": "2025-12-25T22:42:17.289059+00:00", "meta": {"OBJECT_NAME": "FENGYUN 1C DEB", "OBJECT_ID": "1999-025APN", "EPOCH": "2025-12-25T10:53:05.872416", "MEAN_MOTION": 14.45532115, "ECCENTRICITY": 0.0030082, "INCLINATION": 99.0188, "RA_OF_ASC_NODE": 174.3399, "ARG_OF_PERICENTER": 47.8921, "MEAN_ANOMALY": 312.4819, "EPHEMERIS_TYPE": 0, "CLASSIFICATION_TYPE": "U", "NORAD_CAT_ID": 30656, "ELEMENT_SET_NO": 999, "REV_AT_EPOCH": 97269, "BSTAR": 0.002507, "MEAN_MOTION_DOT": 8.855e-05, "MEAN_MOTION_DDOT": 0}, "tle": {"line1": "1 30656U 99025APN 25359.45354019  .00008855  00000+0  25070-2 0  9991", "line2": "2 30656  99.0188 174.3399 0030082  47.8921 312.4819 14.45532115972699"}}, "geometry": {"type": "Point", "coordinates": [166.9072467608406, 41.070299839629875]}}, {"type": "Feature", "properties": {"norad_id": 30657, "name": "FENGYUN 1C DEB", "group": "fengyun-1c-debris", "lat": -17.115864246973906, "lon": -84.3815873072074, "alt_km": 770.6048792420252, "timestamp": "2025-12-25T22:42:17.289069+00:00", "meta": {"OBJECT_NAME": "FENGYUN 1C DEB", "OBJECT_ID": "1999-025APP", "EPOCH": "2025-12-25T05:22:07.156416", "MEAN_MOTION": 14.38748978, "ECCENTRICITY": 0.0016433, "INCLINATION": 98.8344, "RA_OF_ASC_NODE": 97.6202, "ARG_OF_PERICENTER": 304.913, "MEAN_ANOMALY": 113.2496, "EPHEMERIS_TYPE": 0, "CLASSIFICATION_TYPE": "U", "NORAD_CAT_ID": 30657, "ELEMENT_SET_NO": 999, "REV_AT_EPOCH": 97412, "BSTAR": 0.0022365, "MEAN_MOTION_DOT": 6.838e-05, "MEAN_MOTION_DDOT": 0}, "tle": {"line1": "1 30657U 99025APP 25359.22369394  .00006838  00000+0  22365-2 0  9992", "line2": "2 30657  98.8344  97.6202 0016433 304.9130 113.2496 14.38748978974120"}}, "geometry": {"type": "Point", "coordinates": [-84.3815873072074, -17.115864246973906]}}, {"type": "Feature", "properties": {"norad_id": 30658, "name": "FENGYUN 1C DEB", "group": "fengyun-1c-debris", "lat": 26.92764023827424, "lon": -144.55943808298073, "alt_km": 831.1157626715412, "timestamp": "2025-12-25T22:42:17.289079+00:00", "meta": {"OBJECT_NAME": "FENGYUN 1C DEB", "OBJECT_ID": "1999-025APQ", "EPOCH": "2025-12-25T01:11:26.704896", "MEAN_MOTION": 13.87255911, "ECCENTRICITY": 0.01843789, "INCLINATION": 98.4383, "RA_OF_ASC_NODE": 30.3063, "ARG_OF_PERICENTER": 193.99, "MEAN_ANOMALY": 165.6112, "EPHEMERIS_TYPE": 0, "CLASSIFICATION_TYPE": "U", "NORAD_CAT_ID": 30658, "ELEMENT_SET_NO": 999, "REV_AT_EPOCH": 94855, "BSTAR": 0.0016184106, "MEAN_MOTION_DOT": 2.138e-05, "MEAN_MOTION_DDOT": 0}, "tle": {"line1": "1 30658U 99025APQ 25359.04961464  .00002138  00000+0  16184-2 0  9990", "line2": "2 30658  98.4383  30.3063 0184378 193.9900 165.6112 13.87255911948551"}}, "geometry": {"type": "Point", "coordinates": [-144.55943808298073, 26.92764023827424]}}, {"type": "Feature", "properties": {"norad_id": 30660, "name": "FENGYUN 1C DEB", "group": "fengyun-1c-debris", "lat": -24.26533110300264, "lon": 100.44650160510548, "alt_km": 542.1438172587505, "timestamp": "2025-12-25T22:42:17.289100+00:00", "meta": {"OBJECT_NAME": "FENGYUN 1C DEB", "OBJECT_ID": "1999-025APS", "EPOCH": "2025-12-25T18:39:46.716192", "MEAN_MOTION": 14.87690706, "ECCENTRICITY": 0.0136312, "INCLINATION": 98.1384, "RA_OF_ASC_NODE": 96.5751, "ARG_OF_PERICENTER": 291.6649, "MEAN_ANOMALY": 221.4371, "EPHEMERIS_TYPE": 0, "CLASSIFICATION_TYPE": "U", "NORAD_CAT_ID": 30660, "ELEMENT_SET_NO": 999, "REV_AT_EPOCH": 978, "BSTAR": 0.00069855, "MEAN_MOTION_DOT": 7.49e-05, "MEAN_MOTION_DDOT": 0}, "tle": {"line1": "1 30660U 99025APS 25359.77762403  .00007490  00000+0  69855-3 0  9995", "line2": "2 30660  98.1384  96.5751 0136312 291.6649 221.4371 14.87690706  9788"}}, "geometry": {"type": "Point", "coordinates": [100.44650160510548, -24.26533110300264]}}, {"type": "Feature", "properties": {"norad_id": 30661, "name": "FENGYUN 1C DEB", "group": "fengyun-1c-debris", "lat": 66.18473698456609, "lon": 18.86334946968559, "alt_km": 837.6624269245804, "timestamp": "2025-12-25T22:42:17.289111+00:00", "meta": {"OBJECT_NAME": "FENGYUN 1C DEB", "OBJECT_ID": "1999-025APT", "EPOCH": "2025-12-23T17:48:31.598496", "MEAN_MOTION": 14.21148606, "ECCENTRICITY": 0.01443644, "INCLINATION": 99.4872, "RA_OF_ASC_NODE": 174.2338, "ARG_OF_PERICENTER": 14.6896, "MEAN_ANOMALY": 345.8407, "EPHEMERIS_TYPE": 0, "CLASSIFICATION_TYPE": "U", "NORAD_CAT_ID": 30661, "ELEMENT_SET_NO": 999, "REV_AT_EPOCH": 98058, "BSTAR": 0.0001125259, "MEAN_MOTION_DOT": 2.21e-06, "MEAN_MOTION_DDOT": 0}, "tle": {"line1": "1 30661U 99025APT 25357.74203239  .00000221  00000+0  11253-3 0  9992", "line2": "2 30661  99.4872 174.2338 0144364  14.6896 345.8407 14.21148606980585"}}, "geometry": {"type": "Point", "coordinates": [18.86334946968559, 66.18473698456609]}}, {"type": "Feature", "properties": {"norad_id": 30662, "name": "FENGYUN 1C DEB", "group": "fengyun-1c-debris", "lat": -36.8111785481498, "lon": -130.27687687664638, "alt_km": 799.9527201501251, "timestamp": "2025-12-25T22:42:17.289122+00:00", "meta": {"OBJECT_NAME": "FENGYUN 1C DEB", "OBJECT_ID": "1999-025APU", "EPOCH": "2025-12-25T15:38:56.497056", "MEAN_MOTION": 14.22438828, "ECCENTRICITY": 0.0033896, "INCLINATION": 99.0511, "RA_OF_ASC_NODE": 56.2728, "ARG_OF_PERICENTER": 234.126, "MEAN_ANOMALY": 278.6151, "EPHEMERIS_TYPE": 0, "CLASSIFICATION_TYPE": "U", "NORAD_CAT_ID": 30662, "ELEMENT_SET_NO": 999, "REV_AT_EPOCH": 96822, "BSTAR": 0.0014762, "MEAN_MOTION_DOT": 3.263e-05, "MEAN_MOTION_DDOT": 0}, "tle": {"line1": "1 30662U 99025APU 25359.65204279  .00003263  00000+0  14762-2 0  9996", "line2": "2 30662  99.0511  56.2728 0033896 234.1260 278.6151 14.22438828968220"}}, "geometry": {"type": "Point", "coordinates": [-130.27687687664638, -36.8111785481498]}}]}